ORBCOMM FM20 [+]        
1 25416U 98046D   23289.79763372  .00001640  00000+0  62595-3 0  9993
2 25416  44.9944 180.4816 0001364   5.0142 355.0718 14.34500051316684
ORBCOMM FM16 [-]        
1 25417U 98046E   23289.87708967  .00002491  00000+0  91160-3 0  9997
2 25417  44.9935 177.2064 0003470  99.6893 260.4346 14.35212024316616
ORBCOMM FM15 [-]        
1 25418U 98046F   23289.79673522  .00002016  00000+0  75107-3 0  9993
2 25418  44.9967 181.1865 0002874  99.0000 261.1173 14.34967872316619
ORBCOMM FM14 [-]        
1 25419U 98046G   23289.86485569  .00002273  00000+0  83843-3 0  9995
2 25419  44.9960 180.2088 0002179  74.1479  49.8348 14.35079474316575
ORBCOMM FM13 [+]        
1 25420U 98046H   23289.79604141  .00001893  00000+0  71435-3 0  9999
2 25420  44.9970 184.3895 0004192  85.6065 274.5260 14.34537051315640
ORBCOMM FM21 [-]        
1 25475U 98053A   23289.32623883  .00002083  00000+0  78054-3 0  9996
2 25475  45.0083 270.7099 0001919 303.7012  56.3652 14.34553201309596
ORBCOMM FM22 [-]        
1 25476U 98053B   23289.29808848  .00002425  00000+0  89401-3 0  9997
2 25476  45.0077 268.8387 0002472 349.2751  10.8043 14.34920022309574
ORBCOMM FM23 [-]        
1 25477U 98053C   23289.21667236  .00002351  00000+0  87498-3 0  9996
2 25477  45.0083 273.6685 0002143 331.3407  28.7321 14.34528689309729
