<?xml version="1.0" encoding="UTF-8"?>
<ndm xmlns:xsi="http://www.w3.org/2001/XMLSchema-instance" xsi:noNamespaceSchemaLocation="https://sanaregistry.org/r/ndmxml_unqualified/ndmxml-2.0.0-master-2.0.xsd">
<omm id="CCSDS_OMM_VERS" version="2.0">
<header><CREATION_DATE/><ORIGINATOR/></header><body><segment><metadata><OBJECT_NAME>ORBCOMM FM20 [+]</OBJECT_NAME><OBJECT_ID>1998-046D</OBJECT_ID><CENTER_NAME>EARTH</CENTER_NAME><REF_FRAME>TEME</REF_FRAME><TIME_SYSTEM>UTC</TIME_SYSTEM><MEAN_ELEMENT_THEORY>SGP4</MEAN_ELEMENT_THEORY></metadata><data><meanElements><EPOCH>2023-10-16T19:08:35.553408</EPOCH><MEAN_MOTION>14.34500051</MEAN_MOTION><ECCENTRICITY>.0001364</ECCENTRICITY><INCLINATION>44.9944</INCLINATION><RA_OF_ASC_NODE>180.4816</RA_OF_ASC_NODE><ARG_OF_PERICENTER>5.0142</ARG_OF_PERICENTER><MEAN_ANOMALY>355.0718</MEAN_ANOMALY></meanElements><tleParameters><EPHEMERIS_TYPE>0</EPHEMERIS_TYPE><CLASSIFICATION_TYPE>U</CLASSIFICATION_TYPE><NORAD_CAT_ID>25416</NORAD_CAT_ID><ELEMENT_SET_NO>999</ELEMENT_SET_NO><REV_AT_EPOCH>31668</REV_AT_EPOCH><BSTAR>.62595E-3</BSTAR><MEAN_MOTION_DOT>.164E-4</MEAN_MOTION_DOT><MEAN_MOTION_DDOT>0</MEAN_MOTION_DDOT></tleParameters></data></segment></body></omm>
<omm id="CCSDS_OMM_VERS" version="2.0">
<header><CREATION_DATE/><ORIGINATOR/></header><body><segment><metadata><OBJECT_NAME>ORBCOMM FM16 [-]</OBJECT_NAME><OBJECT_ID>1998-046E</OBJECT_ID><CENTER_NAME>EARTH</CENTER_NAME><REF_FRAME>TEME</REF_FRAME><TIME_SYSTEM>UTC</TIME_SYSTEM><MEAN_ELEMENT_THEORY>SGP4</MEAN_ELEMENT_THEORY></metadata><data><meanElements><EPOCH>2023-10-16T21:03:00.547488</EPOCH><MEAN_MOTION>14.35212024</MEAN_MOTION><ECCENTRICITY>.000347</ECCENTRICITY><INCLINATION>44.9935</INCLINATION><RA_OF_ASC_NODE>177.2064</RA_OF_ASC_NODE><ARG_OF_PERICENTER>99.6893</ARG_OF_PERICENTER><MEAN_ANOMALY>260.4346</MEAN_ANOMALY></meanElements><tleParameters><EPHEMERIS_TYPE>0</EPHEMERIS_TYPE><CLASSIFICATION_TYPE>U</CLASSIFICATION_TYPE><NORAD_CAT_ID>25417</NORAD_CAT_ID><ELEMENT_SET_NO>999</ELEMENT_SET_NO><REV_AT_EPOCH>31661</REV_AT_EPOCH><BSTAR>.9116E-3</BSTAR><MEAN_MOTION_DOT>.2491E-4</MEAN_MOTION_DOT><MEAN_MOTION_DDOT>0</MEAN_MOTION_DDOT></tleParameters></data></segment></body></omm>
<omm id="CCSDS_OMM_VERS" version="2.0">
<header><CREATION_DATE/><ORIGINATOR/></header><body><segment><metadata><OBJECT_NAME>ORBCOMM FM15 [-]</OBJECT_NAME><OBJECT_ID>1998-046F</OBJECT_ID><CENTER_NAME>EARTH</CENTER_NAME><REF_FRAME>TEME</REF_FRAME><TIME_SYSTEM>UTC</TIME_SYSTEM><MEAN_ELEMENT_THEORY>SGP4</MEAN_ELEMENT_THEORY></metadata><data><meanElements><EPOCH>2023-10-16T19:07:17.923008</EPOCH><MEAN_MOTION>14.34967872</MEAN_MOTION><ECCENTRICITY>.0002874</ECCENTRICITY><INCLINATION>44.9967</INCLINATION><RA_OF_ASC_NODE>181.1865</RA_OF_ASC_NODE><ARG_OF_PERICENTER>99.0000</ARG_OF_PERICENTER><MEAN_ANOMALY>261.1173</MEAN_ANOMALY></meanElements><tleParameters><EPHEMERIS_TYPE>0</EPHEMERIS_TYPE><CLASSIFICATION_TYPE>U</CLASSIFICATION_TYPE><NORAD_CAT_ID>25418</NORAD_CAT_ID><ELEMENT_SET_NO>999</ELEMENT_SET_NO><REV_AT_EPOCH>31661</REV_AT_EPOCH><BSTAR>.75107E-3</BSTAR><MEAN_MOTION_DOT>.2016E-4</MEAN_MOTION_DOT><MEAN_MOTION_DDOT>0</MEAN_MOTION_DDOT></tleParameters></data></segment></body></omm>
<omm id="CCSDS_OMM_VERS" version="2.0">
<header><CREATION_DATE/><ORIGINATOR/></header><body><segment><metadata><OBJECT_NAME>ORBCOMM FM14 [-]</OBJECT_NAME><OBJECT_ID>1998-046G</OBJECT_ID><CENTER_NAME>EARTH</CENTER_NAME><REF_FRAME>TEME</REF_FRAME><TIME_SYSTEM>UTC</TIME_SYSTEM><MEAN_ELEMENT_THEORY>SGP4</MEAN_ELEMENT_THEORY></metadata><data><meanElements><EPOCH>2023-10-16T20:45:23.531616</EPOCH><MEAN_MOTION>14.35079474</MEAN_MOTION><ECCENTRICITY>.0002179</ECCENTRICITY><INCLINATION>44.9960</INCLINATION><RA_OF_ASC_NODE>180.2088</RA_OF_ASC_NODE><ARG_OF_PERICENTER>74.1479</ARG_OF_PERICENTER><MEAN_ANOMALY>49.8348</MEAN_ANOMALY></meanElements><tleParameters><EPHEMERIS_TYPE>0</EPHEMERIS_TYPE><CLASSIFICATION_TYPE>U</CLASSIFICATION_TYPE><NORAD_CAT_ID>25419</NORAD_CAT_ID><ELEMENT_SET_NO>999</ELEMENT_SET_NO><REV_AT_EPOCH>31657</REV_AT_EPOCH><BSTAR>.83843E-3</BSTAR><MEAN_MOTION_DOT>.2273E-4</MEAN_MOTION_DOT><MEAN_MOTION_DDOT>0</MEAN_MOTION_DDOT></tleParameters></data></segment></body></omm>
<omm id="CCSDS_OMM_VERS" version="2.0">
<header><CREATION_DATE/><ORIGINATOR/></header><body><segment><metadata><OBJECT_NAME>ORBCOMM FM13 [+]</OBJECT_NAME><OBJECT_ID>1998-046H</OBJECT_ID><CENTER_NAME>EARTH</CENTER_NAME><REF_FRAME>TEME</REF_FRAME><TIME_SYSTEM>UTC</TIME_SYSTEM><MEAN_ELEMENT_THEORY>SGP4</MEAN_ELEMENT_THEORY></metadata><data><meanElements><EPOCH>2023-10-16T19:06:17.977824</EPOCH><MEAN_MOTION>14.34537051</MEAN_MOTION><ECCENTRICITY>.0004192</ECCENTRICITY><INCLINATION>44.9970</INCLINATION><RA_OF_ASC_NODE>184.3895</RA_OF_ASC_NODE><ARG_OF_PERICENTER>85.6065</ARG_OF_PERICENTER><MEAN_ANOMALY>274.5260</MEAN_ANOMALY></meanElements><tleParameters><EPHEMERIS_TYPE>0</EPHEMERIS_TYPE><CLASSIFICATION_TYPE>U</CLASSIFICATION_TYPE><NORAD_CAT_ID>25420</NORAD_CAT_ID><ELEMENT_SET_NO>999</ELEMENT_SET_NO><REV_AT_EPOCH>31564</REV_AT_EPOCH><BSTAR>.71435E-3</BSTAR><MEAN_MOTION_DOT>.1893E-4</MEAN_MOTION_DOT><MEAN_MOTION_DDOT>0</MEAN_MOTION_DDOT></tleParameters></data></segment></body></omm>
<omm id="CCSDS_OMM_VERS" version="2.0">
<header><CREATION_DATE/><ORIGINATOR/></header><body><segment><metadata><OBJECT_NAME>ORBCOMM FM21 [-]</OBJECT_NAME><OBJECT_ID>1998-053A</OBJECT_ID><CENTER_NAME>EARTH</CENTER_NAME><REF_FRAME>TEME</REF_FRAME><TIME_SYSTEM>UTC</TIME_SYSTEM><MEAN_ELEMENT_THEORY>SGP4</MEAN_ELEMENT_THEORY></metadata><data><meanElements><EPOCH>2023-10-16T07:49:47.034912</EPOCH><MEAN_MOTION>14.34553201</MEAN_MOTION><ECCENTRICITY>.0001919</ECCENTRICITY><INCLINATION>45.0083</INCLINATION><RA_OF_ASC_NODE>270.7099</RA_OF_ASC_NODE><ARG_OF_PERICENTER>303.7012</ARG_OF_PERICENTER><MEAN_ANOMALY>56.3652</MEAN_ANOMALY></meanElements><tleParameters><EPHEMERIS_TYPE>0</EPHEMERIS_TYPE><CLASSIFICATION_TYPE>U</CLASSIFICATION_TYPE><NORAD_CAT_ID>25475</NORAD_CAT_ID><ELEMENT_SET_NO>999</ELEMENT_SET_NO><REV_AT_EPOCH>30959</REV_AT_EPOCH><BSTAR>.78054E-3</BSTAR><MEAN_MOTION_DOT>.2083E-4</MEAN_MOTION_DOT><MEAN_MOTION_DDOT>0</MEAN_MOTION_DDOT></tleParameters></data></segment></body></omm>
<omm id="CCSDS_OMM_VERS" version="2.0">
<header><CREATION_DATE/><ORIGINATOR/></header><body><segment><metadata><OBJECT_NAME>ORBCOMM FM22 [-]</OBJECT_NAME><OBJECT_ID>1998-053B</OBJECT_ID><CENTER_NAME>EARTH</CENTER_NAME><REF_FRAME>TEME</REF_FRAME><TIME_SYSTEM>UTC</TIME_SYSTEM><MEAN_ELEMENT_THEORY>SGP4</MEAN_ELEMENT_THEORY></metadata><data><meanElements><EPOCH>2023-10-16T07:09:14.844672</EPOCH><MEAN_MOTION>14.34920022</MEAN_MOTION><ECCENTRICITY>.0002472</ECCENTRICITY><INCLINATION>45.0077</INCLINATION><RA_OF_ASC_NODE>268.8387</RA_OF_ASC_NODE><ARG_OF_PERICENTER>349.2751</ARG_OF_PERICENTER><MEAN_ANOMALY>10.8043</MEAN_ANOMALY></meanElements><tleParameters><EPHEMERIS_TYPE>0</EPHEMERIS_TYPE><CLASSIFICATION_TYPE>U</CLASSIFICATION_TYPE><NORAD_CAT_ID>25476</NORAD_CAT_ID><ELEMENT_SET_NO>999</ELEMENT_SET_NO><REV_AT_EPOCH>30957</REV_AT_EPOCH><BSTAR>.89401E-3</BSTAR><MEAN_MOTION_DOT>.2425E-4</MEAN_MOTION_DOT><MEAN_MOTION_DDOT>0</MEAN_MOTION_DDOT></tleParameters></data></segment></body></omm>
<omm id="CCSDS_OMM_VERS" version="2.0">
<header><CREATION_DATE/><ORIGINATOR/></header><body><segment><metadata><OBJECT_NAME>ORBCOMM FM23 [-]</OBJECT_NAME><OBJECT_ID>1998-053C</OBJECT_ID><CENTER_NAME>EARTH</CENTER_NAME><REF_FRAME>TEME</REF_FRAME><TIME_SYSTEM>UTC</TIME_SYSTEM><MEAN_ELEMENT_THEORY>SGP4</MEAN_ELEMENT_THEORY></metadata><data><meanElements><EPOCH>2023-10-16T05:12:00.491904</EPOCH><MEAN_MOTION>14.34528689</MEAN_MOTION><ECCENTRICITY>.0002143</ECCENTRICITY><INCLINATION>45.0083</INCLINATION><RA_OF_ASC_NODE>273.6685</RA_OF_ASC_NODE><ARG_OF_PERICENTER>331.3407</ARG_OF_PERICENTER><MEAN_ANOMALY>28.7321</MEAN_ANOMALY></meanElements><tleParameters><EPHEMERIS_TYPE>0</EPHEMERIS_TYPE><CLASSIFICATION_TYPE>U</CLASSIFICATION_TYPE><NORAD_CAT_ID>25477</NORAD_CAT_ID><ELEMENT_SET_NO>999</ELEMENT_SET_NO><REV_AT_EPOCH>30972</REV_AT_EPOCH><BSTAR>.87498E-3</BSTAR><MEAN_MOTION_DOT>.2351E-4</MEAN_MOTION_DOT><MEAN_MOTION_DDOT>0</MEAN_MOTION_DDOT></tleParameters></data></segment></body></omm>

</ndm>
